ZHUHAI-1 02 (CAS-4B)    
1 42759U 17034B   23161.47454961  .00006799  00000+0  34583-3 0  9991
2 42759  43.0143 153.0013 0009617  53.8072 306.3664 15.17315600330615
ZHUHAI-1 01 (CAS-4A)    
1 42761U 17034D   23161.95148625  .00008257  00000+0  41722-3 0  9998
2 42761  43.0130 148.8809 0010403  59.8745 300.3133 15.17325043330681
MAX VALIER SAT          
1 42778U 17036P   23161.66338156  .00022114  00000+0  58128-3 0  9992
2 42778  97.1557 196.6625 0010474 121.6502 238.5767 15.38546879331722
RADFXSAT (FOX-1B)       
1 43017U 17073E   23161.92450467  .00007442  00000+0  51719-3 0  9995
2 43017  97.6314  46.5098 0235342  89.9827 272.8354 14.85993979300256
FOX-1D (AO-92)          
1 43137U 18004AC  23161.79036683  .00032602  00000+0  67676-3 0  9993
2 43137  97.3280 240.9147 0006747 155.8387 204.3180 15.45608750301325
DIWATA-2B               
1 43678U 18084H   23161.89058375  .00001843  00000+0  18108-3 0  9993
2 43678  98.0223 305.7333 0009651 174.4572 185.6756 14.93409163251320
ES'HAIL 2               
1 43700U 18090A   23161.74543831  .00000141  00000+0  00000+0 0  9994
2 43700   0.0169  60.7414 0001776  53.2393  79.0015  1.00272578 16629
FOX-1CLIFF (AO-95)      
1 43770U 18099N   23161.75391310  .00004676  00000+0  38221-3 0  9991
2 43770  97.5710 223.4675 0012872 155.4053 204.7787 14.99773443246642
ITASAT 1                
1 43786U 18099AE  23161.75471825  .00003828  00000+0  31633-3 0  9996
2 43786  97.5751 224.5014 0013626 142.8758 217.3410 14.99459710246688
JY1SAT (JO-97)          
1 43803U 18099AX  23161.44815754  .00005855  00000+0  46498-3 0  9992
2 43803  97.5694 224.1883 0014604 113.8690 246.4066 15.00764791246685
UWE-4                   
1 43880U 18111E   23161.69567376  .00005858  00000+0  44876-3 0  9994
2 43880  97.6314  66.9761 0017787 192.6828 167.3952 15.02106942243390
NEXUS (FO-99)           
1 43937U 19003F   23161.59087592  .00049565  00000+0  81381-3 0  9999
2 43937  97.0857 188.8832 0009162 297.8372  62.1953 15.52221292245028
JAISAT-1                
1 44419U 19038F   23161.49044474  .00021654  00000+0  74550-3 0  9993
2 44419  97.6734 142.9901 0012947 334.1130  25.9460 15.29988769217510
DUCHIFAT-3              
1 44854U 19089C   23161.97535674  .00007534  00000+0  50928-3 0  9996
2 44854  36.9612 128.4085 0010528 264.9823  94.9719 15.06144505191968
CAS-6 (TIANQIN 1)       
1 44881U 19093C   23161.95237055  .00001106  00000+0  14396-3 0  9999
2 44881  97.8617 240.5095 0016181  98.1746 262.1303 14.82524154187876
RS-44 & BREEZE-KM R/B   
1 44909U 19096E   23161.81152609  .00000026  00000+0  61983-4 0  9994
2 44909  82.5217 352.1832 0217030 201.6214 157.5618 12.79721064161343
BY70-2                  
1 45857U 20042B   23161.89904590  .00017789  00000+0  18351-2 0  9995
2 45857  97.9249 241.7763 0008366  39.0129 321.1690 14.90229415158607
SALSAT                  
1 46495U 20068K   23161.81591275  .00004540  00000+0  30111-3 0  9996
2 46495  97.7690 109.7514 0016659 137.4813 222.7708 15.07671655148115
RADFXSAT-2 (AO-109)     
1 47311U 21002C   23161.81079048  .00023649  00000+0  61854-3 0  9991
2 47311  60.6808  83.0475 0013271 175.1141 185.0085 15.38652274133307
UVSQ-SAT                
1 47438U 21006AB  23161.92612852  .00014698  00000+0  60431-3 0  9997
2 47438  97.3843 219.1235 0011512 105.4297 254.8212 15.24205273131698
DIY-1 (ARDUIQUBE)       
1 47963U 21022AH  23161.71547634  .00216157  00000+0  26638-2 0  9994
2 47963  97.4956  69.9853 0002021  86.2045 273.9443 15.59473180121583
XW-3 (CAS-9)            
1 50466U 21131B   23161.84191815  .00000646  00000+0  22410-3 0  9996
2 50466  98.5519 243.4064 0005003 146.6941 213.4562 14.38914571 76449
TEVEL-3                 
1 50988U 22002E   23161.87993009  .00019071  00000+0  76891-3 0  9995
2 50988  97.4332 228.8892 0006634 247.5217 112.5318 15.24848743 77805
TEVEL-8                 
1 50989U 22002F   23161.83277959  .00017700  00000+0  71544-3 0  9998
2 50989  97.4347 228.9009 0006615 246.2958 113.7586 15.24779952 77793
TEVEL-5                 
1 50998U 22002Q   23161.82794454  .00018018  00000+0  70922-3 0  9993
2 50998  97.4325 229.2134 0007875 242.0375 118.0067 15.25658326 77826
TEVEL-6                 
1 50999U 22002R   23161.82646833  .00018150  00000+0  71435-3 0  9998
2 50999  97.4324 229.2067 0007883 242.0203 118.0237 15.25658182 77829
TEVEL-1                 
1 51013U 22002AF  23161.82391761  .00017379  00000+0  70215-3 0  9990
2 51013  97.4325 228.7774 0006522 246.8288 113.2263 15.24799019 77797
TEVEL-7                 
1 51062U 22002CG  23161.89947565  .00017487  00000+0  70649-3 0  9991
2 51062  97.4342 228.9404 0006619 245.3094 114.7455 15.24798862 77804
TEVEL-4                 
1 51063U 22002CH  23161.83971545  .00017355  00000+0  70230-3 0  9991
2 51063  97.4343 228.8652 0006583 245.5862 114.4689 15.24745877 77797
TEVEL-2                 
1 51069U 22002CP  23161.88176911  .00018173  00000+0  73294-3 0  9998
2 51069  97.4327 228.8625 0006595 246.6396 113.4148 15.24849216 77805
GREENCUBE               
1 53106U 22080B   23156.84588440 -.00000003  00000+0  00000+0 0  9997
2 53106  70.1624 323.6621 0008403 187.6285 172.4247  6.42557080 21021
RS29S (SXC3-2110 CYCLO*)
1 53373U 22096D   23161.89535087  .00026997  00000+0  70916-3 0  9996
2 53373  97.4138  68.1194 0002889 114.1714 245.9834 15.38583398 46727
RS32S (SXC3-212 MONITO*)
1 53374U 22096E   23161.86103028  .00025703  00000+0  69361-3 0  9996
2 53374  97.4117  67.9732 0003383 118.0972 242.0615 15.37759721 46717
RS34S (SXC3-218 KUZBAS*)
1 53375U 22096F   23161.87418302  .00021789  00000+0  62556-3 0  9991
2 53375  97.4143  67.6939 0003246 115.2389 244.9192 15.35862536 46697
RS23S (SXC3-21 UTMN)    
1 53376U 22096G   23161.89883667  .00022994  00000+0  64904-3 0  9992
2 53376  97.4138  67.8068 0002998 113.2716 246.8843 15.36383970 46709
RS28S (SXC3-214 MIET-A*)
1 53377U 22096H   23161.88225984  .00018872  00000+0  54932-3 0  9994
2 53377  97.4149  67.6905 0003205 114.8886 245.2691 15.35459392 46690
RS26S (KAI-1)           
1 53378U 22096J   23161.85005085  .00016525  00000+0  50333-3 0  9994
2 53378  97.4163  67.4430 0003083 111.4537 248.7034 15.34054997 46676
RS19S (SXC3-219 ISOI)   
1 53381U 22096M   23161.89848950  .00020364  00000+0  57727-3 0  9998
2 53381  97.4138  67.9555 0005591  89.3939 270.7945 15.36264644 46715
RS21S (CUBESX-HSE-2)    
1 53383U 22096P   23161.87306876  .00021816  00000+0  60969-3 0  9999
2 53383  97.4142  68.0004 0006076  89.6150 270.5790 15.36691770 46710
RS30S (SXC3-217 SIREN)  
1 53384U 22096Q   23161.89861970  .00019282  00000+0  56529-3 0  9994
2 53384  97.4154  67.8265 0005994  86.3424 273.8505 15.35217000 46704
RS20S (GEOSCAN-EDELVEIS)
1 53385U 22096R   23161.86819065  .00029105  00000+0  72597-3 0  9998
2 53385  97.4132  68.5955 0006282  88.7304 271.4662 15.40140001 46787
RS33S (SXC3-215 VIZARD) 
1 53386U 22096S   23161.86262493  .00037696  00000+0  83424-3 0  9991
2 53386  97.4127  69.2093 0006944  88.0706 272.1337 15.43685478 46813
CAS-5A (FO-118)         
1 54684U 22167C   23161.86340847  .00010953  00000+0  60729-3 0  9992
2 54684  97.5618 299.4853 0013107   1.9140 358.2139 15.13883455 27724
